NORAD_CAT_ID,OBJECT_NAME,OBJECT_TYPE,EPOCH,MEAN_MOTION,ECCENTRICITY,INCLINATION,RA_OF_ASC_NODE,ARG_OF_PERICENTER,MEAN_ANOMALY,BSTAR,MEAN_MOTION_DOT,MEAN_MOTION_DDOT,TLE_LINE0,TLE_LINE1,TLE_LINE2,SEMIMAJOR_AXIS,PERIOD,APOGEE,PERIGEE,DECAYED
55750.0,STARLINK-5573,PAYLOAD,2024-02-14 04:39:45,14.98340716,0.0002676,70.0016,346.8239,264.7602,95.3252,5.9909e-05,6.22e-06,0.0,0 STARLINK-5573,1 55750U 23028K   24045.19427823  .00000622  00000-0  59909-4 0  9994,2 55750  70.0016 346.8239 0002676 264.7602  95.3252 14.98340716 53020,6950.16,96.106,573.885,570.165,0.0
55750.0,STARLINK-5573,PAYLOAD,2024-02-14 12:40:26,14.98333871,0.0002118,70.0032,345.9819,280.0718,80.0202,-6.9311e-05,-9.2e-06,0.0,0 STARLINK-5573,1 55750U 23028K   24045.52808691 -.00000920  00000-0 -69311-4 0  9998,2 55750  70.0032 345.9819 0002118 280.0718  80.0202 14.98333871 53077,6950.181,96.107,573.518,570.574,0.0
55750.0,STARLINK-5573,PAYLOAD,2024-02-14 22:17:15,14.98323184,0.000253,70.0019,344.9737,258.6109,101.4766,4.0238e-05,3.87e-06,0.0,0 STARLINK-5573,1 55750U 23028K   24045.92865028  .00000387  00000-0  40238-4 0  9991,2 55750  70.0019 344.9737 0002530 258.6109 101.4766 14.98323184 53139,6950.214,96.107,573.837,570.321,0.0
55750.0,STARLINK-5573,PAYLOAD,2024-02-15 03:05:39,14.98320583,0.0002554,70.0021,344.4686,253.6226,106.4653,6.6213e-05,6.97e-06,0.0,0 STARLINK-5573,1 55750U 23028K   24046.12893123  .00000697  00000-0  66213-4 0  9996,2 55750  70.0021 344.4686 0002554 253.6226 106.4653 14.98320583 53164,6950.222,96.108,573.862,570.312,0.0
55750.0,STARLINK-5573,PAYLOAD,2024-02-15 06:17:55,14.98323322,0.0002534,70.0021,344.1324,253.9746,106.1134,4.731e-05,4.72e-06,0.0,0 STARLINK-5573,1 55750U 23028K   24046.26245054  .00000472  00000-0  47310-4 0  9993,2 55750  70.0021 344.1324 0002534 253.9746 106.1134 14.98323322 53185,6950.214,96.107,573.84,570.317,0.0
55750.0,STARLINK-5573,PAYLOAD,2024-02-15 12:42:27,14.98328107,0.0002615,70.0019,343.4563,272.9276,87.1584,-2.0734e-05,-3.4e-06,0.0,0 STARLINK-5573,1 55750U 23028K   24046.52948996 -.00000340  00000-0 -20734-4 0  9994,2 55750  70.0019 343.4563 0002615 272.9276  87.1584 14.98328107 53226,6950.199,96.107,573.881,570.246,0.0
55750.0,STARLINK-5573,PAYLOAD,2024-02-16 04:43:48,14.98331846,0.0002853,70.0013,341.7735,272.1771,87.9061,4.2068e-05,4.09e-06,0.0,0 STARLINK-5573,1 55750U 23028K   24047.19708671  .00000409  00000-0  42068-4 0  9990,2 55750  70.0013 341.7735 0002853 272.1771  87.9061 14.98331846 53321,6950.187,96.107,574.035,570.069,0.0
55750.0,STARLINK-5573,PAYLOAD,2024-02-16 12:44:28,14.98353459,0.0002877,70.0007,340.9318,275.2353,84.8478,-0.00040637,-4.941e-05,0.0,0 STARLINK-5573,1 55750U 23028K   24047.53088126 -.00004941  00000-0 -40637-3 0  9990,2 55750  70.0007 340.9318 0002877 275.2353  84.8478 14.98353459 53375,6950.12,96.105,573.985,569.986,0.0
55750.0,STARLINK-5573,PAYLOAD,2024-02-16 22:21:17,14.9832093,0.000261,70.0017,339.9222,268.5671,91.5189,9.6912e-05,1.063e-05,0.0,0 STARLINK-5573,1 55750U 23028K   24047.93145294  .00001063  00000-0  96912-4 0  9992,2 55750  70.0017 339.9222 0002610 268.5671  91.5189 14.98320930 53430,6950.221,96.108,573.9,570.272,0.0
55750.0,STARLINK-5573,PAYLOAD,2024-02-17 03:09:42,14.98317585,0.0003243,70.0005,339.4172,265.7054,94.3735,-2.8747e-05,-4.36e-06,0.0,0 STARLINK-5573,1 55750U 23028K   24048.13173846 -.00000436  00000-0 -28747-4 0  9995,2 55750  70.0005 339.4172 0003243 265.7054  94.3735 14.98317585 53466,6950.231,96.108,574.35,569.842,0.0
55750.0,STARLINK-5573,PAYLOAD,2024-02-17 12:46:30,14.98323106,0.0003254,70.0005,338.4076,258.8525,101.2268,0.00010592,1.171e-05,0.0,0 STARLINK-5573,1 55750U 23028K   24048.53229329  .00001171  00000-0  10592-3 0  9990,2 55750  70.0005 338.4076 0003254 258.8525 101.2268 14.98323106 53528,6950.214,96.107,574.341,569.818,0.0
55750.0,STARLINK-5573,PAYLOAD,2024-02-17 22:23:18,14.98330883,0.0003107,70.0019,337.3992,266.7169,93.3635,9.4037e-05,1.029e-05,0.0,0 STARLINK-5573,1 55750U 23028K   24048.93284956  .00001029  00000-0  94037-4 0  9990,2 55750  70.0019 337.3992 0003107 266.7169  93.3635 14.98330883 53582,6950.19,96.107,574.215,569.896,0.0
55750.0,STARLINK-5573,PAYLOAD,2024-02-18 03:11:41,14.98342294,0.0003388,70.0001,336.8928,271.2158,88.8613,0.00014106,1.591e-05,0.0,0 STARLINK-5573,1 55750U 23028K   24049.13312016  .00001591  00000-0  14106-3 0  9994,2 55750  70.0001 336.8928 0003388 271.2158  88.8613 14.98342294 53614,6950.155,96.106,574.375,569.665,0.0
55750.0,STARLINK-5573,PAYLOAD,2024-02-18 12:48:30,14.98332686,0.0002795,70.0008,335.882,268.9884,91.0955,6.4087e-05,6.72e-06,0.0,0 STARLINK-5573,1 55750U 23028K   24049.53368720  .00000672  00000-0  64087-4 0  9994,2 55750  70.0008 335.8820 0002795 268.9884  91.0955 14.98332686 53676,6950.185,96.107,573.992,570.107,0.0
55750.0,STARLINK-5573,PAYLOAD,2024-02-18 19:13:02,14.98333895,0.0003042,70.0007,335.2093,268.1172,91.9638,-2.2432e-05,-3.61e-06,0.0,0 STARLINK-5573,1 55750U 23028K   24049.80072747 -.00000361  00000-0 -22432-4 0  9990,2 55750  70.0007 335.2093 0003042 268.1172  91.9638 14.98333895 53714,6950.181,96.107,574.16,569.932,0.0
55750.0,STARLINK-5573,PAYLOAD,2024-02-18 22:25:18,14.98324531,0.0003191,70.001,334.8723,266.0836,93.9959,0.00022788,2.627e-05,0.0,0 STARLINK-5573,1 55750U 23028K   24049.93424716  .00002627  00000-0  22788-3 0  9999,2 55750  70.0010 334.8723 0003191 266.0836  93.9959 14.98324531 53739,6950.21,96.107,574.293,569.857,0.0
55750.0,STARLINK-5573,PAYLOAD,2024-02-19 04:49:50,14.98336582,0.0002984,70.0008,334.1991,266.6644,93.4174,0.00027449,3.184e-05,0.0,0 STARLINK-5573,1 55750U 23028K   24050.20127850  .00003184  00000-0  27449-3 0  9998,2 55750  70.0008 334.1991 0002984 266.6644  93.4174 14.98336582 53775,6950.173,96.107,574.111,569.964,0.0
55750.0,STARLINK-5573,PAYLOAD,2024-02-19 19:15:03,14.98334278,0.0002804,70.0014,332.6842,267.5642,92.5196,-4.7406e-05,-6.59e-06,0.0,0 STARLINK-5573,1 55750U 23028K   24050.80212685 -.00000659  00000-0 -47406-4 0  9997,2 55750  70.0014 332.6842 0002804 267.5642  92.5196 14.98334278 53863,6950.18,96.107,573.993,570.096,0.0
55750.0,STARLINK-5573,PAYLOAD,2024-02-19 22:27:19,14.98332466,0.0002818,70.0013,332.3476,267.6327,92.4509,-6.8199e-05,-9.07e-06,0.0,0 STARLINK-5573,1 55750U 23028K   24050.93564774 -.00000907  00000-0 -68199-4 0  9998,2 55750  70.0013 332.3476 0002818 267.6327  92.4509 14.98332466 53884,6950.185,96.107,574.009,570.092,0.0
55750.0,STARLINK-5573,PAYLOAD,2024-02-20 11:16:23,14.98350595,0.0002727,70.0013,331.0014,270.3451,89.7395,-0.00037665,-4.586e-05,0.0,0 STARLINK-5573,1 55750U 23028K   24051.46972121 -.00004586  00000-0 -37665-3 0  9996,2 55750  70.0013 331.0014 0002727 270.3451  89.7395 14.98350595 53960,6950.129,96.106,573.89,570.099,0.0
55750.0,STARLINK-5573,PAYLOAD,2024-02-20 19:17:04,14.98332285,0.0002835,70.0006,330.1596,267.2776,92.8058,-2.8894e-05,-4.38e-06,0.0,0 STARLINK-5573,1 55750U 23028K   24051.80352510 -.00000438  00000-0 -28894-4 0  9995,2 55750  70.0006 330.1596 0002835 267.2776  92.8058 14.98332285 54016,6950.186,96.107,574.021,570.08,0.0
55750.0,STARLINK-5573,PAYLOAD,2024-02-20 22:29:20,14.98333265,0.0002806,70.0008,329.8228,266.7866,93.2972,-1.04e-05,-2.17e-06,0.0,0 STARLINK-5573,1 55750U 23028K   24051.93704370 -.00000217  00000-0 -10400-4 0  9993,2 55750  70.0008 329.8228 0002806 266.7866  93.2972 14.98333265 54038,6950.183,96.107,573.998,570.098,0.0
55750.0,STARLINK-5573,PAYLOAD,2024-02-21 11:18:25,14.98333931,0.0002172,70.0027,328.4753,278.252,81.8393,-4.5774e-05,-6.39e-06,0.0,0 STARLINK-5573,1 55750U 23028K   24052.47112417 -.00000639  00000-0 -45774-4 0  9998,2 55750  70.0027 328.4753 0002172 278.2520  81.8393 14.98333931 54117,6950.181,96.107,573.555,570.536,0.0
55750.0,STARLINK-5573,PAYLOAD,2024-02-21 19:19:05,14.98324001,0.0002158,70.0027,327.6343,264.3047,95.7866,0.0001083,1.199e-05,0.0,0 STARLINK-5573,1 55750U 23028K   24052.80492487  .00001199  00000-0  10830-3 0  9997,2 55750  70.0027 327.6343 0002158 264.3047  95.7866 14.98324001 54169,6950.211,96.107,573.576,570.577,0.0
55750.0,STARLINK-5573,PAYLOAD,2024-02-21 22:31:21,14.9832396,0.0002408,70.002,327.2983,268.0842,92.0041,7.0507e-05,7.48e-06,0.0,0 STARLINK-5573,1 55750U 23028K   24052.93844629  .00000748  00000-0  70507-4 0  9997,2 55750  70.0020 327.2983 0002408 268.0842  92.0041 14.98323960 54180,6950.212,96.107,573.75,570.403,0.0
55750.0,STARLINK-5573,PAYLOAD,2024-02-22 11:20:26,14.98327304,0.0002486,70.0016,325.9515,272.3918,87.6956,2.1015e-05,1.58e-06,0.0,0 STARLINK-5573,1 55750U 23028K   24053.47252691  .00000158  00000-0  21015-4 0  9994,2 55750  70.0016 325.9515 0002486 272.3918  87.6956 14.98327304 54269,6950.201,96.107,573.794,570.338,0.0
55750.0,STARLINK-5573,PAYLOAD,2024-02-22 19:21:06,14.98332236,0.0002756,70.0007,325.1098,269.8891,90.1952,4.9653e-05,5e-06,0.0,0 STARLINK-5573,1 55750U 23028K   24053.80632191  .00000500  00000-0  49653-4 0  9997,2 55750  70.0007 325.1098 0002756 269.8891  90.1952 14.98332236 54319,6950.186,96.107,573.966,570.136,0.0
55750.0,STARLINK-5573,PAYLOAD,2024-02-22 22:33:22,14.98332466,0.0002707,70.0008,324.7733,268.9814,91.1035,3.2811e-05,2.99e-06,0.0,0 STARLINK-5573,1 55750U 23028K   24053.93984204  .00000299  00000-0  32811-4 0  9999,2 55750  70.0008 324.7733 0002707 268.9814  91.1035 14.98332466 54332,6950.185,96.107,573.932,570.169,0.0
55750.0,STARLINK-5573,PAYLOAD,2024-02-23 11:22:26,14.98333175,0.000218,70.0024,323.4263,278.0816,82.0096,4.0346e-05,3.89e-06,0.0,0 STARLINK-5573,1 55750U 23028K   24054.47392209  .00000389  00000-0  40346-4 0  9999,2 55750  70.0024 323.4263 0002180 278.0816  82.0096 14.98333175 54416,6950.183,96.107,573.563,570.533,0.0
55750.0,STARLINK-5573,PAYLOAD,2024-02-23 19:23:06,14.98334636,0.0002833,70.0008,322.5856,272.5939,87.4896,0.00013354,1.501e-05,0.0,0 STARLINK-5573,1 55750U 23028K   24054.80771560  .00001501  00000-0  13354-3 0  9992,2 55750  70.0008 322.5856 0002833 272.5939  87.4896 14.98334636 54461,6950.179,96.107,574.013,570.075,0.0
